[{"OBJECT_NAME":"STARLINK-32775","OBJECT_ID":"2025-014H","EPOCH":"2026-03-09T06:26:42.777888","MEAN_MOTION":15.27569146,"ECCENTRICITY":0.00017354,"INCLINATION":42.9992,"RA_OF_ASC_NODE":156.7088,"ARG_OF_PERICENTER":279.0872,"MEAN_ANOMALY":80.9783,"EPHEMERIS_TYPE":0,"CLASSIFICATION_TYPE":"U","NORAD_CAT_ID":62742,"ELEMENT_SET_NO":999,"REV_AT_EPOCH":6319,"BSTAR":0.00094345853,"MEAN_MOTION_DOT":0.00025782,"MEAN_MOTION_DDOT":0},{"OBJECT_NAME":"TSX-5","OBJECT_ID":"2000-030A","EPOCH":"2026-03-09T21:12:25.441056","MEAN_MOTION":14.57965705,"ECCENTRICITY":0.04447223,"INCLINATION":68.9141,"RA_OF_ASC_NODE":228.535,"ARG_OF_PERICENTER":180.8093,"MEAN_ANOMALY":179.2379,"EPHEMERIS_TYPE":0,"CLASSIFICATION_TYPE":"U","NORAD_CAT_ID":26374,"ELEMENT_SET_NO":999,"REV_AT_EPOCH":30806,"BSTAR":0.0016357838,"MEAN_MOTION_DOT":0.00031184,"MEAN_MOTION_DDOT":0}]
